{"type": "FeatureCollection", "features": [{"type": "Feature", "properties": {"norad_id": 25590, "name": "COSMOS 2361", "group": "musson", "lat": -12.800075709116104, "lon": -28.198182030505254, "alt_km": 1004.6799705029862, "timestamp": "2025-12-27T03:58:44.422125+00:00", "meta": {"OBJECT_NAME": "COSMOS 2361", "OBJECT_ID": "1998-076A", "EPOCH": "2025-12-26T16:38:35.001024", "MEAN_MOTION": 13.73219035, "ECCENTRICITY": 0.0030386, "INCLINATION": 82.9346, "RA_OF_ASC_NODE": 333.7656, "ARG_OF_PERICENTER": 225.2527, "MEAN_ANOMALY": 307.9731, "EPHEMERIS_TYPE": 0, "CLASSIFICATION_TYPE": "U", "NORAD_CAT_ID": 25590, "ELEMENT_SET_NO": 999, "REV_AT_EPOCH": 35302, "BSTAR": 6.369e-05, "MEAN_MOTION_DOT": 7.4e-07, "MEAN_MOTION_DDOT": 0}, "tle": {"line1": "1 25590U 98076A   25360.69346066  .00000074  00000+0  63690-4 0  9995", "line2": "2 25590  82.9346 333.7656 0030386 225.2527 307.9731 13.73219035353020"}}, "geometry": {"type": "Point", "coordinates": [-28.198182030505254, -12.800075709116104]}}, {"type": "Feature", "properties": {"norad_id": 26818, "name": "COSMOS 2378", "group": "musson", "lat": 71.43530151695425, "lon": 147.33297469505865, "alt_km": 964.5840913225775, "timestamp": "2025-12-27T03:58:44.422153+00:00", "meta": {"OBJECT_NAME": "COSMOS 2378", "OBJECT_ID": "2001-023A", "EPOCH": "2025-12-26T10:31:21.747360", "MEAN_MOTION": 13.7414309, "ECCENTRICITY": 0.003327, "INCLINATION": 82.9272, "RA_OF_ASC_NODE": 349.5666, "ARG_OF_PERICENTER": 166.5607, "MEAN_ANOMALY": 304.8436, "EPHEMERIS_TYPE": 0, "CLASSIFICATION_TYPE": "U", "NORAD_CAT_ID": 26818, "ELEMENT_SET_NO": 999, "REV_AT_EPOCH": 23111, "BSTAR": 4.6609e-05, "MEAN_MOTION_DOT": 5.9e-07, "MEAN_MOTION_DDOT": 0}, "tle": {"line1": "1 26818U 01023A   25360.43844615  .00000059  00000+0  46609-4 0  9994", "line2": "2 26818  82.9272 349.5666 0033270 166.5607 304.8436 13.74143090231110"}}, "geometry": {"type": "Point", "coordinates": [147.33297469505865, 71.43530151695425]}}, {"type": "Feature", "properties": {"norad_id": 27436, "name": "COSMOS 2389", "group": "musson", "lat": 6.624724483242763, "lon": -62.87051881512578, "alt_km": 949.6244035332993, "timestamp": "2025-12-27T03:58:44.422165+00:00", "meta": {"OBJECT_NAME": "COSMOS 2389", "OBJECT_ID": "2002-026A", "EPOCH": "2025-12-26T19:29:34.232928", "MEAN_MOTION": 13.75156148, "ECCENTRICITY": 0.0046987, "INCLINATION": 82.9514, "RA_OF_ASC_NODE": 296.5678, "ARG_OF_PERICENTER": 22.3021, "MEAN_ANOMALY": 35.1386, "EPHEMERIS_TYPE": 0, "CLASSIFICATION_TYPE": "U", "NORAD_CAT_ID": 27436, "ELEMENT_SET_NO": 999, "REV_AT_EPOCH": 18342, "BSTAR": 6.4169e-05, "MEAN_MOTION_DOT": 7.7e-07, "MEAN_MOTION_DDOT": 0}, "tle": {"line1": "1 27436U 02026A   25360.81220177  .00000077  00000+0  64169-4 0  9999", "line2": "2 27436  82.9514 296.5678 0046987  22.3021  35.1386 13.75156148183425"}}, "geometry": {"type": "Point", "coordinates": [-62.87051881512578, 6.624724483242763]}}, {"type": "Feature", "properties": {"norad_id": 27818, "name": "COSMOS 2398", "group": "musson", "lat": 3.5078024599328383, "lon": 81.6334550467692, "alt_km": 998.7855889660586, "timestamp": "2025-12-27T03:58:44.422175+00:00", "meta": {"OBJECT_NAME": "COSMOS 2398", "OBJECT_ID": "2003-023A", "EPOCH": "2025-12-26T18:38:24.592128", "MEAN_MOTION": 13.72387321, "ECCENTRICITY": 0.0032674, "INCLINATION": 82.9481, "RA_OF_ASC_NODE": 262.3549, "ARG_OF_PERICENTER": 74.4232, "MEAN_ANOMALY": 340.1674, "EPHEMERIS_TYPE": 0, "CLASSIFICATION_TYPE": "U", "NORAD_CAT_ID": 27818, "ELEMENT_SET_NO": 999, "REV_AT_EPOCH": 13009, "BSTAR": 6.5155e-05, "MEAN_MOTION_DOT": 7.5e-07, "MEAN_MOTION_DDOT": 0}, "tle": {"line1": "1 27818U 03023A   25360.77667352  .00000075  00000+0  65155-4 0  9990", "line2": "2 27818  82.9481 262.3549 0032674  74.4232 340.1674 13.72387321130090"}}, "geometry": {"type": "Point", "coordinates": [81.6334550467692, 3.5078024599328383]}}, {"type": "Feature", "properties": {"norad_id": 28380, "name": "COSMOS 2407", "group": "musson", "lat": -35.069034768971356, "lon": 27.18825278801895, "alt_km": 1010.5907252843881, "timestamp": "2025-12-27T03:58:44.422185+00:00", "meta": {"OBJECT_NAME": "COSMOS 2407", "OBJECT_ID": "2004-028A", "EPOCH": "2025-12-26T16:49:30.591264", "MEAN_MOTION": 13.76315218, "ECCENTRICITY": 0.0039629, "INCLINATION": 82.9593, "RA_OF_ASC_NODE": 202.5555, "ARG_OF_PERICENTER": 16.6279, "MEAN_ANOMALY": 57.423, "EPHEMERIS_TYPE": 0, "CLASSIFICATION_TYPE": "U", "NORAD_CAT_ID": 28380, "ELEMENT_SET_NO": 999, "REV_AT_EPOCH": 7615, "BSTAR": 4.49e-05, "MEAN_MOTION_DOT": 5.9e-07, "MEAN_MOTION_DDOT": 0}, "tle": {"line1": "1 28380U 04028A   25360.70104851  .00000059  00000+0  44900-4 0  9991", "line2": "2 28380  82.9593 202.5555 0039629  16.6279  57.4230 13.76315218 76150"}}, "geometry": {"type": "Point", "coordinates": [27.18825278801895, -35.069034768971356]}}, {"type": "Feature", "properties": {"norad_id": 28521, "name": "COSMOS 2414", "group": "musson", "lat": -0.6040553835338781, "lon": 173.67618907492457, "alt_km": 944.2220905422209, "timestamp": "2025-12-27T03:58:44.422195+00:00", "meta": {"OBJECT_NAME": "COSMOS 2414", "OBJECT_ID": "2005-002A", "EPOCH": "2025-12-26T17:36:02.335968", "MEAN_MOTION": 13.87904705, "ECCENTRICITY": 0.0041439, "INCLINATION": 82.9489, "RA_OF_ASC_NODE": 174.078, "ARG_OF_PERICENTER": 100.9333, "MEAN_ANOMALY": 259.6496, "EPHEMERIS_TYPE": 0, "CLASSIFICATION_TYPE": "U", "NORAD_CAT_ID": 28521, "ELEMENT_SET_NO": 999, "REV_AT_EPOCH": 5989, "BSTAR": 5.1567e-05, "MEAN_MOTION_DOT": 7.8e-07, "MEAN_MOTION_DDOT": 0}, "tle": {"line1": "1 28521U 05002A   25360.73336037  .00000078  00000+0  51567-4 0  9995", "line2": "2 28521  82.9489 174.0780 0041439 100.9333 259.6496 13.87904705 59893"}}, "geometry": {"type": "Point", "coordinates": [173.67618907492457, -0.6040553835338781]}}, {"type": "Feature", "properties": {"norad_id": 32052, "name": "COSMOS 2429", "group": "musson", "lat": -12.38745255399263, "lon": 154.22436487314687, "alt_km": 1012.8990657138665, "timestamp": "2025-12-27T03:58:44.422205+00:00", "meta": {"OBJECT_NAME": "COSMOS 2429", "OBJECT_ID": "2007-038A", "EPOCH": "2025-12-26T11:19:46.861824", "MEAN_MOTION": 13.75150735, "ECCENTRICITY": 0.0038417, "INCLINATION": 82.9809, "RA_OF_ASC_NODE": 333.185, "ARG_OF_PERICENTER": 359.9977, "MEAN_ANOMALY": 0.1172, "EPHEMERIS_TYPE": 0, "CLASSIFICATION_TYPE": "U", "NORAD_CAT_ID": 32052, "ELEMENT_SET_NO": 999, "REV_AT_EPOCH": 91791, "BSTAR": 5.6621e-05, "MEAN_MOTION_DOT": 7e-07, "MEAN_MOTION_DDOT": 0}, "tle": {"line1": "1 32052U 07038A   25360.47207016  .00000070  00000+0  56621-4 0  9993", "line2": "2 32052  82.9809 333.1850 0038417 359.9977   0.1172 13.75150735917910"}}, "geometry": {"type": "Point", "coordinates": [154.22436487314687, -12.38745255399263]}}, {"type": "Feature", "properties": {"norad_id": 35635, "name": "COSMOS 2454", "group": "musson", "lat": 24.274807160039202, "lon": -25.487242514208116, "alt_km": 935.6157376368137, "timestamp": "2025-12-27T03:58:44.422215+00:00", "meta": {"OBJECT_NAME": "COSMOS 2454", "OBJECT_ID": "2009-039A", "EPOCH": "2025-12-26T20:51:38.644992", "MEAN_MOTION": 13.89930373, "ECCENTRICITY": 0.0019907, "INCLINATION": 82.956, "RA_OF_ASC_NODE": 157.9341, "ARG_OF_PERICENTER": 35.5854, "MEAN_ANOMALY": 76.4086, "EPHEMERIS_TYPE": 0, "CLASSIFICATION_TYPE": "U", "NORAD_CAT_ID": 35635, "ELEMENT_SET_NO": 999, "REV_AT_EPOCH": 83346, "BSTAR": 5.8574e-05, "MEAN_MOTION_DOT": 8.8e-07, "MEAN_MOTION_DDOT": 0}, "tle": {"line1": "1 35635U 09039A   25360.86919728  .00000088  00000+0  58574-4 0  9997", "line2": "2 35635  82.9560 157.9341 0019907  35.5854  76.4086 13.89930373833461"}}, "geometry": {"type": "Point", "coordinates": [-25.487242514208116, 24.274807160039202]}}, {"type": "Feature", "properties": {"norad_id": 36519, "name": "COSMOS 2463", "group": "musson", "lat": -32.051343078518684, "lon": 11.673697314624256, "alt_km": 995.6488609036423, "timestamp": "2025-12-27T03:58:44.422225+00:00", "meta": {"OBJECT_NAME": "COSMOS 2463", "OBJECT_ID": "2010-017A", "EPOCH": "2025-12-26T14:43:53.597856", "MEAN_MOTION": 13.71650343, "ECCENTRICITY": 0.0034842, "INCLINATION": 82.9603, "RA_OF_ASC_NODE": 16.5163, "ARG_OF_PERICENTER": 248.1363, "MEAN_ANOMALY": 235.1487, "EPHEMERIS_TYPE": 0, "CLASSIFICATION_TYPE": "U", "NORAD_CAT_ID": 36519, "ELEMENT_SET_NO": 999, "REV_AT_EPOCH": 78427, "BSTAR": 3.8217e-05, "MEAN_MOTION_DOT": 4.9e-07, "MEAN_MOTION_DDOT": 0}, "tle": {"line1": "1 36519U 10017A   25360.61381479  .00000049  00000+0  38217-4 0  9995", "line2": "2 36519  82.9603  16.5163 0034842 248.1363 235.1487 13.71650343784275"}}, "geometry": {"type": "Point", "coordinates": [11.673697314624256, -32.051343078518684]}}]}